{"type": "FeatureCollection", "features": [ {"type": "Feature", "properties": {"norad_id": 60989, "name": "SENTINEL-2C", "group": "resource", "lat": -3.263972815152412, "lon": -114.895127135791, "alt_km": 792.3101523095047, "timestamp": "2025-12-19T04:59:47.958583+00:00", "meta": {"OBJECT_NAME": "SENTINEL-2C", "OBJECT_ID": "2024-157A", "EPOCH": "2025-12-18T19:45:06.286752", "MEAN_MOTION": 14.30819875, "ECCENTRICITY": 0.00012222, "INCLINATION": 98.5678, "RA_OF_ASC_NODE": 65.2179, "ARG_OF_PERICENTER": 96.329, "MEAN_ANOMALY": 263.8032, "EPHEMERIS_TYPE": 0, "CLASSIFICATION_TYPE": "U", "NORAD_CAT_ID": 60989, "ELEMENT_SET_NO": 999, "REV_AT_EPOCH": 6719, "BSTAR": 5.9698295e-05, "MEAN_MOTION_DOT": 1.13e-06, "MEAN_MOTION_DDOT": 0}, "tle": {"line1": "1 60989U 24157A   25352.82298943  .00000113  00000+0  59698-4 0  9998", "line2": "2 60989  98.5678  65.2179 0001222  96.3290 263.8032 14.30819875 67196"}}, "geometry": {"type": "Point", "coordinates": [-114.895127135791, -3.263972815152412]}}, {"type": "Feature", "properties": {"norad_id": 61735, "name": "IONOSFERA-M 1", "group": "resource", "lat": -77.60509287439493, "lon": -1.4184514838185043, "alt_km": 823.6663140562578, "timestamp": "2025-12-19T04:59:47.958595+00:00", "meta": {"OBJECT_NAME": "IONOSFERA-M 1", "OBJECT_ID": "2024-199A", "EPOCH": "2025-12-18T22:42:32.812704", "MEAN_MOTION": 14.22715341, "ECCENTRICITY": 6.608e-05, "INCLINATION": 98.74, "RA_OF_ASC_NODE": 222.7467, "ARG_OF_PERICENTER": 12.8815, "MEAN_ANOMALY": 347.238, "EPHEMERIS_TYPE": 0, "CLASSIFICATION_TYPE": "U", "NORAD_CAT_ID": 61735, "ELEMENT_SET_NO": 999, "REV_AT_EPOCH": 10207, "BSTAR": 4.1046659e-05, "MEAN_MOTION_DOT": 4.8e-07, "MEAN_MOTION_DDOT": 0}, "tle": {"line1": "1 61735U 24199A   25352.94621311  .00000048  00000+0  41047-4 0  9992", "line2": "2 61735  98.7400 222.7467 0000660  12.8815 347.2380 14.22715341102076"}}, "geometry": {"type": "Point", "coordinates": [-1.4184514838185043, -77.60509287439493]}}, {"type": "Feature", "properties": {"norad_id": 61736, "name": "IONOSFERA-M 2", "group": "resource", "lat": 79.33088802404416, "lon": 168.17170559559744, "alt_km": 807.5732158659121, "timestamp": "2025-12-19T04:59:47.958605+00:00", "meta": {"OBJECT_NAME": "IONOSFERA-M 2", "OBJECT_ID": "2024-199B", "EPOCH": "2025-12-18T23:32:25.502208", "MEAN_MOTION": 14.22717531, "ECCENTRICITY": 0.00017801, "INCLINATION": 98.7406, "RA_OF_ASC_NODE": 222.6935, "ARG_OF_PERICENTER": 102.6526, "MEAN_ANOMALY": 257.4852, "EPHEMERIS_TYPE": 0, "CLASSIFICATION_TYPE": "U", "NORAD_CAT_ID": 61736, "ELEMENT_SET_NO": 999, "REV_AT_EPOCH": 10520, "BSTAR": 3.9102423e-05, "MEAN_MOTION_DOT": 4.3e-07, "MEAN_MOTION_DDOT": 0}, "tle": {"line1": "1 61736U 24199B   25352.98085072  .00000043  00000+0  39102-4 0  9999", "line2": "2 61736  98.7406 222.6935 0001780 102.6526 257.4852 14.22717531105200"}}, "geometry": {"type": "Point", "coordinates": [168.17170559559744, 79.33088802404416]}}, {"type": "Feature", "properties": {"norad_id": 63772, "name": "BIOMASS", "group": "resource", "lat": -57.224440126279234, "lon": -14.606527203238718, "alt_km": 676.7457867800176, "timestamp": "2025-12-19T04:59:47.958615+00:00", "meta": {"OBJECT_NAME": "BIOMASS", "OBJECT_ID": "2025-090A", "EPOCH": "2025-12-18T23:00:21.805344", "MEAN_MOTION": 14.67534226, "ECCENTRICITY": 0.00010686, "INCLINATION": 98.0699, "RA_OF_ASC_NODE": 177.8778, "ARG_OF_PERICENTER": 78.354, "MEAN_ANOMALY": 281.7785, "EPHEMERIS_TYPE": 0, "CLASSIFICATION_TYPE": "U", "NORAD_CAT_ID": 63772, "ELEMENT_SET_NO": 999, "REV_AT_EPOCH": 3425, "BSTAR": 0.00015489535, "MEAN_MOTION_DOT": 8.3e-06, "MEAN_MOTION_DDOT": 0}, "tle": {"line1": "1 63772U 25090A   25352.95858571  .00000830  00000+0  15490-3 0  9998", "line2": "2 63772  98.0699 177.8778 0001068  78.3540 281.7785 14.67534226 34257"}}, "geometry": {"type": "Point", "coordinates": [-14.606527203238718, -57.224440126279234]}}, {"type": "Feature", "properties": {"norad_id": 64694, "name": "GOSAT-GW (IBUKI GW)", "group": "resource", "lat": 81.74066177551886, "lon": -148.3406720021255, "alt_km": 660.381265257618, "timestamp": "2025-12-19T04:59:47.958625+00:00", "meta": {"OBJECT_NAME": "GOSAT-GW (IBUKI GW)", "OBJECT_ID": "2025-141A", "EPOCH": "2025-12-18T23:41:15.358848", "MEAN_MOTION": 14.67563731, "ECCENTRICITY": 0.00014451, "INCLINATION": 98.0434, "RA_OF_ASC_NODE": 288.3867, "ARG_OF_PERICENTER": 84.0149, "MEAN_ANOMALY": 276.122, "EPHEMERIS_TYPE": 0, "CLASSIFICATION_TYPE": "U", "NORAD_CAT_ID": 64694, "ELEMENT_SET_NO": 999, "REV_AT_EPOCH": 2541, "BSTAR": 9.1760756e-05, "MEAN_MOTION_DOT": 4.73e-06, "MEAN_MOTION_DDOT": 0}, "tle": {"line1": "1 64694U 25141A   25352.98698332  .00000473  00000+0  91761-4 0  9998", "line2": "2 64694  98.0434 288.3867 0001445  84.0149 276.1220 14.67563731 25416"}}, "geometry": {"type": "Point", "coordinates": [-148.3406720021255, 81.74066177551886]}}, {"type": "Feature", "properties": {"norad_id": 64876, "name": "IONOSFERA-M 3", "group": "resource", "lat": 77.98992925571751, "lon": -179.90686327112718, "alt_km": 812.1898570122767, "timestamp": "2025-12-19T04:59:47.958636+00:00", "meta": {"OBJECT_NAME": "IONOSFERA-M 3", "OBJECT_ID": "2025-155A", "EPOCH": "2025-12-18T21:46:40.833984", "MEAN_MOTION": 14.21442468, "ECCENTRICITY": 0.00020652, "INCLINATION": 98.5791, "RA_OF_ASC_NODE": 314.5991, "ARG_OF_PERICENTER": 49.9754, "MEAN_ANOMALY": 310.1604, "EPHEMERIS_TYPE": 0, "CLASSIFICATION_TYPE": "U", "NORAD_CAT_ID": 64876, "ELEMENT_SET_NO": 999, "REV_AT_EPOCH": 2079, "BSTAR": 3.8045791e-05, "MEAN_MOTION_DOT": 4e-07, "MEAN_MOTION_DDOT": 0}, "tle": {"line1": "1 64876U 25155A   25352.90741706  .00000040  00000+0  38046-4 0  9998", "line2": "2 64876  98.5791 314.5991 0002065  49.9754 310.1604 14.21442468 20794"}}, "geometry": {"type": "Point", "coordinates": [-179.90686327112718, 77.98992925571751]}}, {"type": "Feature", "properties": {"norad_id": 64877, "name": "IONOSFERA-M 4", "group": "resource", "lat": -77.55160338384003, "lon": -2.0454789961232454, "alt_km": 828.5628579351478, "timestamp": "2025-12-19T04:59:47.958646+00:00", "meta": {"OBJECT_NAME": "IONOSFERA-M 4", "OBJECT_ID": "2025-155B", "EPOCH": "2025-12-18T22:37:10.131168", "MEAN_MOTION": 14.21443707, "ECCENTRICITY": 0.00014567, "INCLINATION": 98.5789, "RA_OF_ASC_NODE": 314.5527, "ARG_OF_PERICENTER": 57.233, "MEAN_ANOMALY": 302.8988, "EPHEMERIS_TYPE": 0, "CLASSIFICATION_TYPE": "U", "NORAD_CAT_ID": 64877, "ELEMENT_SET_NO": 999, "REV_AT_EPOCH": 2079, "BSTAR": 4.352734e-05, "MEAN_MOTION_DOT": 5.2e-07, "MEAN_MOTION_DDOT": 0}, "tle": {"line1": "1 64877U 25155B   25352.94247837  .00000052  00000+0  43527-4 0  9992", "line2": "2 64877  98.5789 314.5527 0001456  57.2330 302.8988 14.21443707 20792"}}, "geometry": {"type": "Point", "coordinates": [-2.0454789961232454, -77.55160338384003]}}, {"type": "Feature", "properties": {"norad_id": 64899, "name": "MICROCARB", "group": "resource", "lat": 9.160298811657265, "lon": -110.25045449503438, "alt_km": 647.5979894590355, "timestamp": "2025-12-19T04:59:47.958657+00:00", "meta": {"OBJECT_NAME": "MICROCARB", "OBJECT_ID": "2025-156A", "EPOCH": "2025-12-18T18:26:14.251200", "MEAN_MOTION": 14.72066629, "ECCENTRICITY": 0.00174471, "INCLINATION": 98.002, "RA_OF_ASC_NODE": 68.0169, "ARG_OF_PERICENTER": 126.5587, "MEAN_ANOMALY": 233.723, "EPHEMERIS_TYPE": 0, "CLASSIFICATION_TYPE": "U", "NORAD_CAT_ID": 64899, "ELEMENT_SET_NO": 999, "REV_AT_EPOCH": 2142, "BSTAR": 9.4104373e-05, "MEAN_MOTION_DOT": 5.43e-06, "MEAN_MOTION_DDOT": 0}, "tle": {"line1": "1 64899U 25156A   25352.76822050  .00000543  00000+0  94104-4 0  9995", "line2": "2 64899  98.0020  68.0169 0017447 126.5587 233.7230 14.72066629 21426"}}, "geometry": {"type": "Point", "coordinates": [-110.25045449503438, 9.160298811657265]}}, {"type": "Feature", "properties": {"norad_id": 64900, "name": "CO3D 3", "group": "resource", "lat": -69.72895653475221, "lon": -131.2223184529383, "alt_km": 513.4846316907333, "timestamp": "2025-12-19T04:59:47.958667+00:00", "meta": {"OBJECT_NAME": "CO3D 3", "OBJECT_ID": "2025-156B", "EPOCH": "2025-12-18T23:09:22.982976", "MEAN_MOTION": 15.20195655, "ECCENTRICITY": 0.00013876, "INCLINATION": 97.4346, "RA_OF_ASC_NODE": 69.243, "ARG_OF_PERICENTER": 80.5157, "MEAN_ANOMALY": 279.6235, "EPHEMERIS_TYPE": 0, "CLASSIFICATION_TYPE": "U", "NORAD_CAT_ID": 64900, "ELEMENT_SET_NO": 999, "REV_AT_EPOCH": 2215, "BSTAR": 0.00031601564, "MEAN_MOTION_DOT": 6.778e-05, "MEAN_MOTION_DDOT": 0}, "tle": {"line1": "1 64900U 25156B   25352.96484934  .00006778  00000+0  31602-3 0  9994", "line2": "2 64900  97.4346  69.2430 0001387  80.5157 279.6235 15.20195655 22156"}}, "geometry": {"type": "Point", "coordinates": [-131.2223184529383, -69.72895653475221]}}, {"type": "Feature", "properties": {"norad_id": 64901, "name": "CO3D 4", "group": "resource", "lat": -68.97578852834937, "lon": -130.37851329553118, "alt_km": 512.2352384377464, "timestamp": "2025-12-19T04:59:47.958677+00:00", "meta": {"OBJECT_NAME": "CO3D 4", "OBJECT_ID": "2025-156C", "EPOCH": "2025-12-18T23:09:36.171936", "MEAN_MOTION": 15.20225883, "ECCENTRICITY": 0.00012617, "INCLINATION": 97.4346, "RA_OF_ASC_NODE": 69.2434, "ARG_OF_PERICENTER": 174.9978, "MEAN_ANOMALY": 185.127, "EPHEMERIS_TYPE": 0, "CLASSIFICATION_TYPE": "U", "NORAD_CAT_ID": 64901, "ELEMENT_SET_NO": 999, "REV_AT_EPOCH": 2215, "BSTAR": 0.00023869296, "MEAN_MOTION_DOT": 5.107e-05, "MEAN_MOTION_DDOT": 0}, "tle": {"line1": "1 64901U 25156C   25352.96500199  .00005107  00000+0  23869-3 0  9998", "line2": "2 64901  97.4346  69.2434 0001261 174.9978 185.1270 15.20225883 22158"}}, "geometry": {"type": "Point", "coordinates": [-130.37851329553118, -68.97578852834937]}}]}